[{"OBJECT_NAME":"STARLINK-5258","OBJECT_ID":"2022-141AQ","EPOCH":"2026-03-09T22:25:07.852224","MEAN_MOTION":15.08839014,"ECCENTRICITY":0.00013987,"INCLINATION":53.2189,"RA_OF_ASC_NODE":353.1029,"ARG_OF_PERICENTER":102.7806,"MEAN_ANOMALY":257.3342,"EPHEMERIS_TYPE":0,"CLASSIFICATION_TYPE":"U","NORAD_CAT_ID":54195,"ELEMENT_SET_NO":999,"REV_AT_EPOCH":18603,"BSTAR":-2.4793087e-5,"MEAN_MOTION_DOT":-6.82e-6,"MEAN_MOTION_DDOT":0},{"OBJECT_NAME":"IRIDIUM 33 DEB","OBJECT_ID":"1997-051QE","EPOCH":"2026-03-07T09:35:18.798432","MEAN_MOTION":15.07266806,"ECCENTRICITY":0.0013423,"INCLINATION":86.3519,"RA_OF_ASC_NODE":312.8742,"ARG_OF_PERICENTER":171.2899,"MEAN_ANOMALY":188.8573,"EPHEMERIS_TYPE":0,"CLASSIFICATION_TYPE":"U","NORAD_CAT_ID":35484,"ELEMENT_SET_NO":999,"REV_AT_EPOCH":63287,"BSTAR":0.0040001,"MEAN_MOTION_DOT":0.00060878,"MEAN_MOTION_DDOT":0}]
